Zone	Business Name	Phone	status	Oil	Oil Filter	Fluids	Tires	Batteries	Newspapers	Scrap Metal	Aluminum	Address	Zip Code	LAT	LONGSoutheast	Tex-Con Oil Company	512-444-1941	1	Yes	Yes			Yes				"4906 Burleson Rd
Austin, Texas 78744
(30.21197822400046, -97.72995848699969)"	78744	30.2119782	97.7299584Southeast	Home Chemical Collection	512-974-4343	1	Yes	Yes			Yes				"2514 Business Center Dr
Austin, Texas 78744
(30.21303076400045, -97.73832021699968)"	78744	30.2130307	97.7383202Southeast	City of Austin Landfill	512-243-1894	1	Yes	Yes	Yes	Yes	Yes	Yes	Yes	Yes	"10108 Fm
Austin, Texas 78719
(30.136601191000466, -97.67324819399965)"	78719	30.1366011	97.6732481Southeast	"Special Automotive Service, Inc."	512-243-1015	1	Yes	Yes			Yes				"10462 FM
Austin, Texas 78759
(30.401251131000436, -97.75333968099966)"	78759	30.4012511	97.7533396South	Lube Pit Stop	512-444-8563	1	Yes	Yes			Yes				"1951 Oltorf St
Austin, Texas 78741
(30.23095105900046, -97.73379059599966)"	78741	30.230951	97.7337905East	Travis County Drop Off	512-473-9114	1	Yes	Yes			Yes				"9301 Johnny Morris Rd
Austin, Texas 78704
(30.326210362000438, -97.6278986749997)"	78704	30.3262103	97.6278986Southeast	"TDs Texas Disposal Systems, Inc."	512-243-4100	1	Yes	Yes	Yes	Yes	Yes	Yes	Yes	Yes	"3016 FM
Austin, Texas 78747
(30.136162345000457, -97.7587492129997)"	78747	30.1361623	97.7587492South	Volvo Clinic-River City	512-441-1334	1	Yes	Yes			Yes				"4201 Congress Ave
Austin, Texas 78745
(30.220960771000478, -97.76516033099966)"	78745	30.2209607	97.7651603South	Advance Auto Parts	512-326-1166	1	Yes								"600 William Cannon Dr
Austin, Texas 78745
(30.191450819000465, -97.77308111999969)"	78745	30.1914508	97.7730811South	Quick Lube	512-447-2556	1	Yes	Yes			Yes				"6300 Manchaca Rd
Austin, Texas 78745
(30.209320415000434, -97.80440015499966)"	78745	30.2093204	97.8044001South	Wal-Mart	512-443-6601	1	Yes			Yes	Yes				"710 Ben White Blvd
Austin, Texas 78704
(30.218950038000457, -97.75540049999967)"	78704	30.21895	97.7554004South	Jiffy Lube	512-280-5823	1	Yes	Yes			Yes				"8602 Brodie Ln
Austin, Texas 78745
(30.197620138000445, -97.84079038399966)"	78745	30.1976201	97.8407903East	Jiffy Lube	512-445-2777	1	Yes	Yes							"1806 Riverside Dr
Austin, Texas 78741
(30.24331044000047, -97.72930015099968)"	78741	30.2433104	97.7293001East	O'Reilly Auto Parts	512-442-2729	1	Yes	Yes			Yes				"2505 Riverside Dr
Austin, Texas 78741
(30.23450008800046, -97.72412064199966)"	78741	30.2345	97.7241206East	O'Reilly Auto Parts	512-453-2256	1	Yes	Yes							"3909 IH
Austin, Texas 78722
(30.288663348000455, -97.71564675799965)"	78722	30.2886633	97.7156467East	AutoZone	512-928-1183	1	Yes								"6500 Springdale Rd
Austin, Texas 78723
(30.308370607000484, -97.66935035599965)"	78723	30.3083706	97.6693503Southeast	AutoZone	512-441-0712	1	Yes	Yes			Yes				"1941 William Cannon Dr
Austin, Texas 78744
(30.187940967000486, -97.7640910129997)"	78744	30.1879409	97.764091South	An Honest Mechanic	512-462-1989	1	Yes	Yes			Yes				"121 Pickle Rd
Austin, Texas 78704
(30.227610592000474, -97.76259074099966)"	78704	30.2276105	97.7625907South	AutoZone	512-291-9156	1	Yes	Yes			Yes				"9509 Manchaca Rd
Austin, Texas 78748
(30.17674078300047, -97.82212110499967)"	78748	30.1767407	97.8221211Northwest	AutoZone	512-335-3761	1	Yes								"13450 Hwy
N Austin, Texas 78750
(30.431592304000446, -97.80136937099968)"	78750	30.4315923	97.8013693Northwest	Jiffy Lube	512-250-1515	1	Yes	Yes							"12621 Research Blvd
Austin, Texas 78759
(30.431780113000457, -97.76365347099966)"	78759	30.4317801	97.7636534Northwest	Jiffy Lube	512-258-5075	1	Yes								"13781 Hwy
N Austin, Texas 78750
(30.431592304000446, -97.80136937099968)"	78750	30.4315923	97.8013693Northwest	Jiffy Lube	512-250-5150	1	Yes	Yes							"12212 FM
Austin, Texas 78758
(30.383593028000462, -97.7079865129997)"	78758	30.383593	97.7079865East	Allied Sales Co.	512-385-2167	1	Yes	Yes			Yes				"5005 7th St
Austin, Texas 78702
(30.254080823000436, -97.69874046999968)"	78702	30.2540808	97.6987404East	Advance Auto Parts	512-928-1183	1	Yes	Yes							"5339 IH
Austin, Texas 78723
(30.30758150200046, -97.68754760699966)"	78723	30.3075815	97.6875476East	O'Reilly Auto Parts	512-928-8171	1	Yes	Yes			Yes				"7112 Ed Bluestein Blvd
Austin, Texas 78723
(30.313183780000486, -97.66294169999969)"	78723	30.3131837	97.6629416East	Leo's Station	512-926-4110	1	Yes	Yes		Yes	Yes				"1149 Airport Blvd
Austin, Texas 78702
(30.273220233000472, -97.69781057899968)"	78702	30.2732202	97.6978105South	Commercial Metals	512-442-2384	1					Yes		Yes	Yes	"710 Industrial Blvd
Austin, Texas 78745
(30.21499079600045, -97.75729024199967)"	78745	30.2149907	97.7572902South	Shell Rapid Lube	512-339-3790	1	Yes	Yes			Yes				"9706 Bilbrook Place
Austin, Texas 78748
(30.172750429000473, -97.81697040399968)"	78748	30.1727504	97.8169704South	O'Reilly Auto Parts	512-280-5201	1	Yes	Yes							"9505 Manchaca Rd
Austin, Texas 78748
(30.177100295000457, -97.82190101899965)"	78748	30.1771002	97.821901Northwest	Wal-Mart	512-257-7689	1	Yes	Yes			Yes				"13201 FM
N Austin, Texas 78717
(30.491740216000437, -97.76430647399968)"	78717	30.4917402	97.7643064Northwest	Pep Boys #797	512-250-9293	1	Yes	Yes		Yes					"13729 Research Blvd
Austin, Texas 78750
(30.458510696000474, -97.79239106799969)"	78750	30.4585106	97.792391Northwest	Budget Lube & Car Wash	512-258-5545	1	Yes	Yes			Yes				"8661 Spicewood Springs Rd
Austin, Texas 78750
(30.433691234000435, -97.77164139999968)"	78750	30.4336912	97.7716413Northwest	Sam's Club	512-219-7071	1	Yes								"9700 Capital of Texas Hwy
Austin, Texas 78759
(30.390160763000438, -97.74353083799969)"	78759	30.3901607	97.7435308Northwest	MoPac Carwash & Lube	512-346-0438	1	Yes	Yes							"8650 MoPac Expy
Austin, Texas 78759
(30.374690219000456, -97.74043004699968)"	78759	30.3746902	97.74043North	DNT Recycling	512-467-0063	1		Yes							"629 St Jon's Ave
Austin, Texas 78752
(30.33232196300048, -97.7038066179997)"	78752	30.3323219	97.7038066North	Advance Auto Parts	512-451-0151	1	Yes				Yes				"2209 Anderson Ln
Austin, Texas 78757
(30.35552629600045, -97.7296820039997)"	78757	30.3555262	97.729682North	Broz Automotive	512-453-2221	1	Yes	Yes							"7430 Burnett Rd
Austin, Texas 78757
(30.350220351000473, -97.7345004019997)"	78757	30.3502203	97.7345004North	"Gordon Automotive, Inc"	512-374-4100	1	Yes	Yes			Yes				"8526 Burnett Rd
Austin, Texas 78757
(30.366959127000484, -97.7280261999997)"	78757	30.3669591	97.7280261North	Jiffy Lube	512-832-8384	1	Yes	Yes							"1649 Ohlen Rd
Austin, Texas 78758
(30.36349003500044, -97.7164510509997)"	78758	30.36349	97.716451North	Jiffy Lube	512-451-9709	1	Yes	Yes							"2711 Anderson Ln
Unit B Austin, Texas 78757
(30.358378924000476, -97.73575188899969)"	78757	30.3583789	97.7357518North	Jiffy Lube	512-459-6434	1	Yes	Yes							"8725 Burnett Rd
Austin, Texas 78757
(30.370100678000483, -97.72718110399967)"	78757	30.3701006	97.7271811North	National Transmission Center	512-459-6434	1	Yes								"6506 Burnett Rd
Austin, Texas 78757
(30.34116110700046, -97.73881108999967)"	78757	30.3411611	97.738811Northwest	"Covert Ford, Inc"	512-345-6070	1	Yes	Yes			Yes				"11514 Research Blvd
Austin, Texas 78758
(30.412896958000488, -97.7461896799997)"	78758	30.4128969	97.7461896Northwest	O'Reilly Auto Parts	512-219-7071	1	Yes			Yes					"13776 Hwy
Austin, Texas 78750
(30.431592304000446, -97.80136937099968)"	78750	30.4315923	97.8013693North	Advance Auto Parts	512-837-9991	1	Yes				Yes				"9316 Lamar Blvd
Austin, Texas 78753
(30.36243108700046, -97.69739114699968)"	78753	30.362431	97.6973911North	Friendly Car Care	512-821-3300	1	Yes	Yes							"9110 Burnett Rd
Austin, Texas 78758
(30.375020924000466, -97.72606108599967)"	78758	30.3750209	97.726061North	Jiffy Lube	512-835-5823	1	Yes	Yes							"10111 Lamar Blvd
Unit B Austin, Texas 78753
(30.370960281000464, -97.6925803689997)"	78753	30.3709602	97.6925803North	Jiffy Lube	512-836-3344	1	Yes	Yes							"10300 Lamar Blvd
Austin, Texas 78753
(30.37197083300049, -97.69201114099968)"	78753	30.3719708	97.6920111North	Jiffy Lube	512-832-8384	1	Yes	Yes							"2516 Parmer Ln
Austin, Texas 78727
(30.41937112000045, -97.70258102699967)"	78727	30.4193711	97.702581North	Jiffy Lube	512-454-5823	1	Yes	Yes							"8509 Burnett Rd
Austin, Texas 78757
(30.36625546400046, -97.72815235999968)"	78757	30.3662554	97.7281523North	O'Reilly Auto Parts	512-491-0021	1	Yes								"8339 Research Blvd
Austin, Texas 78758
(30.357130588000473, -97.7155407469997)"	78758	30.3571305	97.7155407North	Wal-Mart	512-837-0886	1	Yes	Yes			Yes				"12900 IH
Austin, Texas 78753
(30.371752889000447, -97.6805695279997)"	78753	30.3717528	97.6805695Northeast	Wal-Mart	512-339-0906	1	Yes	Yes		Yes	Yes				"1030 Norwood Park Blvd
Austin, Texas 78753
(30.338820821000468, -97.69273016499966)"	78753	30.3388208	97.6927301East	Advance Auto Parts	512-478-7284	1	Yes				Yes				"2730 7th St
Austin, Texas 78702
(30.26032043200047, -97.71022065999966)"	78702	30.2603204	97.7102206East	A-Line Auto Parts	512-476-2396	1					Yes				"2501 7th St
Austin, Texas 78702
(30.260870070000465, -97.71362104499968)"	78702	30.26087	97.713621South	AutoZone	512-447-3966	1	Yes								"730 Stassney Ln
Austin, Texas 78745
(30.209010451000438, -97.78277066299967)"	78745	30.2090104	97.7827706South	"Rising Sun, Inc."	512-453-6292	1	Yes	Yes			Yes				"1001 Lamar Blvd
Austin, Texas 78704
(30.25590027600049, -97.76158018899969)"	78704	30.2559002	97.7615801West	Charlie & Ann's Exxon	512-452-5422	1	Yes								"5400 Balcones Dr
Austin, Texas 78731
(30.336061105000454, -97.75808070799968)"	78731	30.3360611	97.7580807West	Lakeway Service Center	512-261-6633	1	Yes	Yes		Yes	Yes				"2200 Lakeway Blvd
Lakeway, Texas 78734
(30.357450922000453, -97.9797210699997)"	78734	30.3574509	97.979721Central	Jiffy Lube	512-451-3708	1	Yes	Yes							"3807 Guadalupe St
Austin, Texas 78751
(30.30295193900048, -97.73799574399965)"	78751	30.3029519	97.7379957North	Pep Boys #749	512-339-1144	1	Yes	Yes		Yes	Yes				"8917 Research Blvd
Austin, Texas 78758
(30.370940692000488, -97.72059004899967)"	78758	30.3709406	97.72059North	Texaco X-Press Lube	512-339-1070	1	Yes								"506 Rundberg Ln
Austin, Texas 78753
(30.35916091000047, -97.68994048999969)"	78753	30.3591609	97.6899404North	AutoZone	512-835-4748	1	Yes				Yes				"9905 Lamar Blvd
Austin, Texas 78753
(30.36886082300049, -97.69378104699967)"	78753	30.3688608	97.693781North	American Fiber Manufacturing	512-251-3401	1						Yes			"1701 Bench Mark Dr
Austin, Texas 78728
(30.430080433000455, -97.67657055699965)"	78728	30.4300804	97.6765705North	"Gordon Automotive, Inc"	512-458-4245	1	Yes	Yes			Yes				"8518 Burnet Rd
Austin, Texas 78757
(30.366883464000466, -97.72804667099967)"	78757	30.3668834	97.7280466South	Pep Boys #759	512-442-2214	1	Yes	Yes							"3909 Lamar Blvd
Austin, Texas 78704
(30.237100790000454, -97.79141047599967)"	78704	30.2371007	97.7914104South	Southside Recycling	512-292-1022	1							Yes		"8408 Congress Ave
Austin, Texas 78748
(30.26253332300047, -97.74480622299967)"	78748	30.2625333	97.7448062Southwest	Oak Hill Automotive	512-288-3366	1	Yes	Yes			Yes				"9301 Hwy
W Austin, Texas 78735
(30.254103175000466, -97.86540606199969)"	78735	30.2541031	97.865406West	Rollingwood Shell	512-327-0624	1					Yes				"2800 Bee Caves Rd
Austin, Texas 78746
(30.271221023000464, -97.78872104899966)"	78746	30.271221	97.788721North	C Mc Metal Recycling	512--251-3407	1		Yes			Yes		Yes		"1704 Howard Ln
Austin, Texas 78728
(30.42840301500047, -97.67969680999965)"	78728	30.428403	97.6796968South	Jiffy Lube	512-442-0909	1	Yes	Yes							"1705 Ben White Blvd
Austin, Texas 78704
(30.22833076900048, -97.78585071299966)"	78704	30.2283307	97.7858507East	All-Almerican Recycling	512-243-1183	1	Yes				Yes		Yes	Yes	"1114 1st St
Austin, Texas 78702
(30.259940179000466, -97.73275008499968)"	78702	30.2599401	97.73275East	Austin Metal & Iron Co. LP	512-477-3547	1	Yes				Yes		Yes	Yes	"1000 4th St
Austin, Texas 78702
(30.263090519000457, -97.73282037399969)"	78702	30.2630905	97.7328203South	AutoZone	512-447-7078	1	Yes								"2602 Congress Ave
Austin, Texas 78704
(30.236393459000453, -97.75564617599969)"	78704	30.2363934	97.7556461South	Lube Pit Stop Fleet Service	512-440-1892	1	Yes	Yes			Yes				"2223 Lamar Blvd
Austin, Texas 78704
(30.247410260000436, -97.77423109799969)"	78704	30.2474102	97.774231South	O'Reilly Auto Parts	512-416-0802	1	Yes	Yes							"2409 Congress Ave
Austin, Texas 78704
(30.238228581000442, -97.75399616699968)"	78704	30.2382285	97.7539961Southwest	Oak Hill Automotive	512-891-9975	1	Yes	Yes			Yes				"5526 Hwy
W Austin, Texas 78735
(30.254103175000466, -97.86540606199969)"	78735	30.2541031	97.865406Southwest	Wal-Mart	512-892-1779	1	Yes	Yes			Yes				"5017 Hwy
W Austin, Texas 78746
(30.290922751000437, -97.80956839699968)"	78746	30.2909227	97.8095683West	Lamb's Tire & Automtoive	512-345-6600	1	Yes	Yes		Yes					"3564 Far West Blvd
Austin, Texas 78731
(30.35396065900045, -97.75413068399968)"	78731	30.3539606	97.7541306West	Tarrytown Texaco	512-472-9024	1	Yes			Yes	Yes				"2400 Exposition Blvd
Austin, Texas 78703
(30.297001037000484, -97.76802029599969)"	78703	30.297001	97.7680202West	Westlake Auto Care	512-327-0262	1	Yes	Yes		Yes	Yes				"98 Redbud Tr
Austin, Texas 78746
(30.292312816000447, -97.79831858999967)"	78746	30.2923128	97.7983185Central	Jiffy Lube	512-451-3708	1	Yes	Yes							"3809 Gudalupe St
Austin, Texas 78751
(30.303010190000464, -97.73800103499968)"	78751	30.3030101	97.738001Central	Jiffy Lube	512-452-5773	1	Yes	Yes							"3401 Lamar Blvd
Austin, Texas 78705
(30.30296064200047, -97.74454023799967)"	78705	30.3029606	97.7445402East	AutoZone	512-477-3547	1	Yes								"2735 7th St
Austin, Texas 78702
(30.260458084000447, -97.7109033479997)"	78702	30.260458	97.7109033South	Wal-Mart	512-292-0219	1	Yes	Yes			Yes				"9300 IH
Austin, Texas 78748
(30.16985351800048, -97.82531904099966)"	78748	30.1698535	97.825319West	Bee Cave Automotive	512-263-5082	1	Yes	Yes			Yes				"14417 Hwy
W Austin, Texas 78738
(30.320803354000475, -97.96173917899966)"	78738	30.3208033	97.9617391East	Beaman Metal Co	512-385-6935	1					Yes		Yes		"409 5th St
Austin, Texas 78702
(30.251130146000435, -97.69682873899967)"	78702	30.2511301	97.6968287East	"Don A. Stewart, Inc"	512-385-0510	1	Yes	Yes			Yes				"7110 Ben White Blvd
Austin, Texas 78741
(30.21540100800047, -97.70005061499967)"	78741	30.215401	97.7000506East	Fleet Maintenance of Texas	512-477-3900	1	Yes	Yes			Yes				"4812 7th St
Austin, Texas 78702
(30.254520995000462, -97.69940072799966)"	78702	30.2545209	97.6994007East	Gardner Iron & Metal	512-477-3900	1							Yes	Yes	"1201 4th St
Austin, Texas 78702
(30.262550098000474, -97.73126018299968)"	78702	30.26255	97.7312601South	Econo Lube'N Tune	512-443-2122	1	Yes	Yes			Yes				"2712 William Cannon Dr
Austin, Texas 78745
(30.20779018300044, -97.81683097699965)"	78745	30.2077901	97.8168309South	Jiffy Lube	512-292-9177	1	Yes	Yes							"9919 Manchaca Rd
Austin, Texas 78748
(30.172950925000464, -97.8240603969997)"	78748	30.1729509	97.8240603South	Jiffy Lube	512-442-5823	1	Yes	Yes							"1111 William Cannon Dr
Austin, Texas 78745
(30.19933012600046, -97.79545037799966)"	78745	30.1993301	97.7954503South	Jiffy Lube	512-444-5823	1	Yes	Yes							"1401 Lamar Blvd
Austin, Texas 78704
(30.25333068700047, -97.76318070999969)"	78704	30.2533306	97.7631807Southwest	Homann's Automotive	512-288-1298	1	Yes	Yes			Yes				"8917 Circle Dr
Austin, Texas 78736
(30.23602110200045, -97.91410089399966)"	78736	30.2360211	97.9141008Southwest	Lube Pit Stop	512-892-7426	1	Yes	Yes			Yes				"6410 Hwy
W Austin, Texas 78735
(30.254103175000466, -97.86540606199969)"	78735	30.2541031	97.865406West	Jiffy Lube	512-327-5736	1	Yes	Yes							"2826 FM
Austin, Texas 78727
(30.425852552000435, -97.71630719899969)"	78727	30.4258525	97.7163071West	Shell Casis Village	512-478-1905	1	Yes	Yes		Yes					"2701 Exposition Blvd
Austin, Texas 78703
(30.303300565000484, -97.76429035699965)"	78703	30.3033005	97.7642903Central	North Austin Recycling Center	512-385-9154	1		Yes						Yes	"3409 5th St
Austin, Texas 78702
(30.25443111700048, -97.7047807349997)"	78702	30.2544311	97.7047807Central	Oil Works	512-459-7775	1	Yes	Yes							"4721 Airport Blvd
Austin, Texas 78751
(30.30732087800044, -97.71572050299966)"	78751	30.3073208	97.7157205Central	Whole Foods Market	512-476-1206	1						Yes			"525 Lamar Blvd
Austin, Texas 78703
(30.27120028200045, -97.75417101399967)"	78703	30.2712002	97.754171Central	Ecology Action of Texas	512-322-5129	1	Yes	Yes	Yes	Yes	Yes	Yes	Yes	Yes	"707 9th St
Austin, Texas 78701
(30.268770119000465, -97.73432064499968)"	78701	30.2687701	97.7343206